[{"OBJECT_NAME":"SEEDS II (CO-66)","OBJECT_ID":"2008-021J","EPOCH":"2026-03-09T22:06:22.421376","MEAN_MOTION":15.29097236,"ECCENTRICITY":0.00014475,"INCLINATION":97.7519,"RA_OF_ASC_NODE":62.3611,"ARG_OF_PERICENTER":359.2618,"MEAN_ANOMALY":0.8619,"EPHEMERIS_TYPE":0,"CLASSIFICATION_TYPE":"U","NORAD_CAT_ID":32791,"ELEMENT_SET_NO":999,"REV_AT_EPOCH":97210,"BSTAR":0.00084213052,"MEAN_MOTION_DOT":0.00023758,"MEAN_MOTION_DDOT":0},{"OBJECT_NAME":"STARLINK-30089","OBJECT_ID":"2023-056L","EPOCH":"2026-03-09T08:13:05.516544","MEAN_MOTION":15.27318984,"ECCENTRICITY":0.00014786,"INCLINATION":42.9999,"RA_OF_ASC_NODE":171.0972,"ARG_OF_PERICENTER":246.7575,"MEAN_ANOMALY":113.3121,"EPHEMERIS_TYPE":0,"CLASSIFICATION_TYPE":"U","NORAD_CAT_ID":56296,"ELEMENT_SET_NO":999,"REV_AT_EPOCH":16044,"BSTAR":0.0039503773,"MEAN_MOTION_DOT":0.00109192,"MEAN_MOTION_DDOT":0}]
